{"type": "FeatureCollection", "features": [ {"type": "Feature", "properties": {"norad_id": 30941, "name": "FENGYUN 1C DEB", "group": "fengyun-1c-debris", "lat": 52.264000227848484, "lon": 32.6750167069886, "alt_km": 807.1617750342184, "timestamp": "2025-12-10T14:53:37.371281+00:00", "meta": {"OBJECT_NAME": "FENGYUN 1C DEB", "OBJECT_ID": "1999-025BAF", "EPOCH": "2025-12-08T13:38:13.756992", "MEAN_MOTION": 14.30976311, "ECCENTRICITY": 0.0034393, "INCLINATION": 98.5439, "RA_OF_ASC_NODE": 199.4565, "ARG_OF_PERICENTER": 328.8313, "MEAN_ANOMALY": 31.083, "EPHEMERIS_TYPE": 0, "CLASSIFICATION_TYPE": "U", "NORAD_CAT_ID": 30941, "ELEMENT_SET_NO": 999, "REV_AT_EPOCH": 96566, "BSTAR": 0.0027617, "MEAN_MOTION_DOT": 7.273e-05, "MEAN_MOTION_DDOT": 0}, "tle": {"line1": "1 30941U 99025BAF 25342.56821478  .00007273  00000+0  27617-2 0  9992", "line2": "2 30941  98.5439 199.4565 0034393 328.8313  31.0830 14.30976311965668"}}, "geometry": {"type": "Point", "coordinates": [32.6750167069886, 52.264000227848484]}}, {"type": "Feature", "properties": {"norad_id": 30942, "name": "FENGYUN 1C DEB", "group": "fengyun-1c-debris", "lat": -75.52344258121866, "lon": 126.6448668915347, "alt_km": 932.390207025619, "timestamp": "2025-12-10T14:53:37.371291+00:00", "meta": {"OBJECT_NAME": "FENGYUN 1C DEB", "OBJECT_ID": "1999-025BAG", "EPOCH": "2025-12-09T11:14:49.102368", "MEAN_MOTION": 14.14833727, "ECCENTRICITY": 0.0137951, "INCLINATION": 98.6797, "RA_OF_ASC_NODE": 341.7993, "ARG_OF_PERICENTER": 115.5884, "MEAN_ANOMALY": 37.828, "EPHEMERIS_TYPE": 0, "CLASSIFICATION_TYPE": "U", "NORAD_CAT_ID": 30942, "ELEMENT_SET_NO": 999, "REV_AT_EPOCH": 96598, "BSTAR": 0.00034042707, "MEAN_MOTION_DOT": 6.78e-06, "MEAN_MOTION_DDOT": 0}, "tle": {"line1": "1 30942U 99025BAG 25343.46862387  .00000678  00000+0  34043-3 0  9991", "line2": "2 30942  98.6797 341.7993 0137951 115.5884  37.8280 14.14833727965985"}}, "geometry": {"type": "Point", "coordinates": [126.6448668915347, -75.52344258121866]}}, {"type": "Feature", "properties": {"norad_id": 30943, "name": "FENGYUN 1C DEB", "group": "fengyun-1c-debris", "lat": -45.42912308867867, "lon": 7.651180409172673, "alt_km": 901.9808060298847, "timestamp": "2025-12-10T14:53:37.371300+00:00", "meta": {"OBJECT_NAME": "FENGYUN 1C DEB", "OBJECT_ID": "1999-025BAH", "EPOCH": "2025-12-10T06:33:51.503328", "MEAN_MOTION": 14.04483311, "ECCENTRICITY": 0.00509362, "INCLINATION": 98.7971, "RA_OF_ASC_NODE": 358.2711, "ARG_OF_PERICENTER": 72.5444, "MEAN_ANOMALY": 288.1283, "EPHEMERIS_TYPE": 0, "CLASSIFICATION_TYPE": "U", "NORAD_CAT_ID": 30943, "ELEMENT_SET_NO": 999, "REV_AT_EPOCH": 95707, "BSTAR": 0.00042583951, "MEAN_MOTION_DOT": 6.45e-06, "MEAN_MOTION_DDOT": 0}, "tle": {"line1": "1 30943U 99025BAH 25344.27351277  .00000645  00000+0  42584-3 0  9996", "line2": "2 30943  98.7971 358.2711 0050936  72.5444 288.1283 14.04483311957077"}}, "geometry": {"type": "Point", "coordinates": [7.651180409172673, -45.42912308867867]}}, {"type": "Feature", "properties": {"norad_id": 30944, "name": "FENGYUN 1C DEB", "group": "fengyun-1c-debris", "lat": 47.68635951902979, "lon": -129.94075765668217, "alt_km": 616.6993443153433, "timestamp": "2025-12-10T14:53:37.371309+00:00", "meta": {"OBJECT_NAME": "FENGYUN 1C DEB", "OBJECT_ID": "1999-025BAJ", "EPOCH": "2025-12-10T02:52:03.915264", "MEAN_MOTION": 14.52437026, "ECCENTRICITY": 0.01493083, "INCLINATION": 98.8509, "RA_OF_ASC_NODE": 39.6755, "ARG_OF_PERICENTER": 108.5299, "MEAN_ANOMALY": 283.716, "EPHEMERIS_TYPE": 0, "CLASSIFICATION_TYPE": "U", "NORAD_CAT_ID": 30944, "ELEMENT_SET_NO": 999, "REV_AT_EPOCH": 99038, "BSTAR": 0.00023463449, "MEAN_MOTION_DOT": 1.05e-05, "MEAN_MOTION_DDOT": 0}, "tle": {"line1": "1 30944U 99025BAJ 25344.11948976  .00001050  00000+0  23463-3 0  9994", "line2": "2 30944  98.8509  39.6755 0149308 108.5299 283.7160 14.52437026990385"}}, "geometry": {"type": "Point", "coordinates": [-129.94075765668217, 47.68635951902979]}}, {"type": "Feature", "properties": {"norad_id": 30945, "name": "FENGYUN 1C DEB", "group": "fengyun-1c-debris", "lat": 54.112644052602235, "lon": -20.097887157910055, "alt_km": 765.9879638569064, "timestamp": "2025-12-10T14:53:37.371318+00:00", "meta": {"OBJECT_NAME": "FENGYUN 1C DEB", "OBJECT_ID": "1999-025BAK", "EPOCH": "2025-12-09T00:16:03.912096", "MEAN_MOTION": 14.29662074, "ECCENTRICITY": 0.00307859, "INCLINATION": 99.3876, "RA_OF_ASC_NODE": 351.3861, "ARG_OF_PERICENTER": 48.4926, "MEAN_ANOMALY": 7.9541, "EPHEMERIS_TYPE": 0, "CLASSIFICATION_TYPE": "U", "NORAD_CAT_ID": 30945, "ELEMENT_SET_NO": 999, "REV_AT_EPOCH": 96384, "BSTAR": 0.0021106478, "MEAN_MOTION_DOT": 5.39e-05, "MEAN_MOTION_DDOT": 0}, "tle": {"line1": "1 30945U 99025BAK 25343.01115639  .00005390  00000+0  21106-2 0  9997", "line2": "2 30945  99.3876 351.3861 0030785  48.4926   7.9541 14.29662074963845"}}, "geometry": {"type": "Point", "coordinates": [-20.097887157910055, 54.112644052602235]}}, {"type": "Feature", "properties": {"norad_id": 30946, "name": "FENGYUN 1C DEB", "group": "fengyun-1c-debris", "lat": -49.3865784490607, "lon": -91.03665375433087, "alt_km": 683.9897687890198, "timestamp": "2025-12-10T14:53:37.371327+00:00", "meta": {"OBJECT_NAME": "FENGYUN 1C DEB", "OBJECT_ID": "1999-025BAL", "EPOCH": "2025-12-09T18:40:10.165152", "MEAN_MOTION": 14.48118371, "ECCENTRICITY": 0.0089292, "INCLINATION": 99.0394, "RA_OF_ASC_NODE": 98.7614, "ARG_OF_PERICENTER": 201.7526, "MEAN_ANOMALY": 317.3185, "EPHEMERIS_TYPE": 0, "CLASSIFICATION_TYPE": "U", "NORAD_CAT_ID": 30946, "ELEMENT_SET_NO": 999, "REV_AT_EPOCH": 98308, "BSTAR": 0.0014631271, "MEAN_MOTION_DOT": 5.678e-05, "MEAN_MOTION_DDOT": 0}, "tle": {"line1": "1 30946U 99025BAL 25343.77789543  .00005678  00000+0  14631-2 0  9996", "line2": "2 30946  99.0394  98.7614 0089292 201.7526 317.3185 14.48118371983080"}}, "geometry": {"type": "Point", "coordinates": [-91.03665375433087, -49.3865784490607]}}, {"type": "Feature", "properties": {"norad_id": 30947, "name": "FENGYUN 1C DEB", "group": "fengyun-1c-debris", "lat": 20.825527355103066, "lon": -129.17877481336615, "alt_km": 805.6956109123612, "timestamp": "2025-12-10T14:53:37.371336+00:00", "meta": {"OBJECT_NAME": "FENGYUN 1C DEB", "OBJECT_ID": "1999-025BAM", "EPOCH": "2025-12-09T03:43:37.602912", "MEAN_MOTION": 14.38029909, "ECCENTRICITY": 0.00957302, "INCLINATION": 98.8088, "RA_OF_ASC_NODE": 232.7007, "ARG_OF_PERICENTER": 258.4535, "MEAN_ANOMALY": 100.5891, "EPHEMERIS_TYPE": 0, "CLASSIFICATION_TYPE": "U", "NORAD_CAT_ID": 30947, "ELEMENT_SET_NO": 999, "REV_AT_EPOCH": 98441, "BSTAR": 0.00047572934, "MEAN_MOTION_DOT": 1.469e-05, "MEAN_MOTION_DDOT": 0}, "tle": {"line1": "1 30947U 99025BAM 25343.15529633  .00001469  00000+0  47573-3 0  9997", "line2": "2 30947  98.8088 232.7007 0095730 258.4535 100.5891 14.38029909984418"}}, "geometry": {"type": "Point", "coordinates": [-129.17877481336615, 20.825527355103066]}}, {"type": "Feature", "properties": {"norad_id": 30949, "name": "FENGYUN 1C DEB", "group": "fengyun-1c-debris", "lat": 48.17565011720853, "lon": 168.87635849566837, "alt_km": 925.0194242052585, "timestamp": "2025-12-10T14:53:37.371347+00:00", "meta": {"OBJECT_NAME": "FENGYUN 1C DEB", "OBJECT_ID": "1999-025BAP", "EPOCH": "2025-12-09T18:44:39.278688", "MEAN_MOTION": 14.14043332, "ECCENTRICITY": 0.01164471, "INCLINATION": 98.6974, "RA_OF_ASC_NODE": 338.21, "ARG_OF_PERICENTER": 318.3292, "MEAN_ANOMALY": 221.1179, "EPHEMERIS_TYPE": 0, "CLASSIFICATION_TYPE": "U", "NORAD_CAT_ID": 30949, "ELEMENT_SET_NO": 999, "REV_AT_EPOCH": 96474, "BSTAR": 0.00042754958, "MEAN_MOTION_DOT": 8.24e-06, "MEAN_MOTION_DDOT": 0}, "tle": {"line1": "1 30949U 99025BAP 25343.78101017  .00000824  00000+0  42755-3 0  9991", "line2": "2 30949  98.6974 338.2100 0116447 318.3292 221.1179 14.14043332964746"}}, "geometry": {"type": "Point", "coordinates": [168.87635849566837, 48.17565011720853]}}, {"type": "Feature", "properties": {"norad_id": 30954, "name": "FENGYUN 1C DEB", "group": "fengyun-1c-debris", "lat": 13.02265631519865, "lon": -93.1851336027929, "alt_km": 760.3026587733484, "timestamp": "2025-12-10T14:53:37.371356+00:00", "meta": {"OBJECT_NAME": "FENGYUN 1C DEB", "OBJECT_ID": "1999-025BAU", "EPOCH": "2025-12-10T05:45:36.087264", "MEAN_MOTION": 14.14911971, "ECCENTRICITY": 0.01287288, "INCLINATION": 98.7114, "RA_OF_ASC_NODE": 84.4111, "ARG_OF_PERICENTER": 194.3942, "MEAN_ANOMALY": 195.5506, "EPHEMERIS_TYPE": 0, "CLASSIFICATION_TYPE": "U", "NORAD_CAT_ID": 30954, "ELEMENT_SET_NO": 999, "REV_AT_EPOCH": 96352, "BSTAR": 0.002057229, "MEAN_MOTION_DOT": 4.265e-05, "MEAN_MOTION_DDOT": 0}, "tle": {"line1": "1 30954U 99025BAU 25344.24000101  .00004265  00000+0  20572-2 0  9996", "line2": "2 30954  98.7114  84.4111 0128728 194.3942 195.5506 14.14911971963526"}}, "geometry": {"type": "Point", "coordinates": [-93.1851336027929, 13.02265631519865]}}, {"type": "Feature", "properties": {"norad_id": 30956, "name": "FENGYUN 1C DEB", "group": "fengyun-1c-debris", "lat": 10.29413667930855, "lon": -159.7176466067628, "alt_km": 882.1582615893667, "timestamp": "2025-12-10T14:53:37.371365+00:00", "meta": {"OBJECT_NAME": "FENGYUN 1C DEB", "OBJECT_ID": "1999-025BAW", "EPOCH": "2025-12-09T13:21:27.445824", "MEAN_MOTION": 14.14190977, "ECCENTRICITY": 0.0049338, "INCLINATION": 98.7604, "RA_OF_ASC_NODE": 17.6344, "ARG_OF_PERICENTER": 352.1573, "MEAN_ANOMALY": 163.3992, "EPHEMERIS_TYPE": 0, "CLASSIFICATION_TYPE": "U", "NORAD_CAT_ID": 30956, "ELEMENT_SET_NO": 999, "REV_AT_EPOCH": 96262, "BSTAR": 0.0014968, "MEAN_MOTION_DOT": 2.844e-05, "MEAN_MOTION_DDOT": 0}, "tle": {"line1": "1 30956U 99025BAW 25343.55656766  .00002844  00000+0  14968-2 0  9998", "line2": "2 30956  98.7604  17.6344 0049338 352.1573 163.3992 14.14190977962628"}}, "geometry": {"type": "Point", "coordinates": [-159.7176466067628, 10.29413667930855]}}]}